H1 CPF 01  gfz 2022 01 06 01  5061 terrasarx 
H2 0702601  6201 31698    2022 01 06 00 59 42 2022 01 11 00 00 42   120 1 1  0 0 0
H9
10 0 59587  62622.000000  0   -4539546.083  -1413663.841   4974986.570
10 0 59587  62742.000000  0   -5181054.808  -1385351.710   4314037.564
10 0 59587  62862.000000  0   -5731210.631  -1322398.270   3577150.718
10 0 59587  62982.000000  0   -6179788.374  -1227585.788   2777278.253
10 0 59587  63102.000000  0   -6518400.534  -1104419.513   1928495.414
10 0 59587  63222.000000  0   -6740665.349   -957033.289   1045749.489
10 0 59587  63342.000000  0   -6842333.823   -790080.431    144589.083
10 0 59587  63462.000000  0   -6821374.054   -608612.823   -759118.085
10 0 59587  63582.000000  0   -6678011.113   -417951.500  -1649473.855
10 0 59587  63702.000000  0   -6414720.476   -223551.934  -2510836.995
10 0 59587  63822.000000  0   -6036178.900    -30868.528  -3328103.930
10 0 59587  63942.000000  0   -5549170.497    154780.131  -4086978.883
10 0 59587  64062.000000  0   -4962451.402    328340.585  -4774223.744
10 0 59587  64182.000000  0   -4286579.143    485145.656  -5377884.660
10 0 59587  64302.000000  0   -3533711.097    621024.720  -5887492.314
10 0 59587  64422.000000  0   -2717376.487    732399.657  -6294232.941
10 0 59587  64542.000000  0   -1852228.830    816366.043  -6591088.268
10 0 59587  64662.000000  0    -953782.116    870758.440  -6772946.224
10 0 59587  64782.000000  0     -38135.262    894198.533  -6836678.402
10 0 59587  64902.000000  0     878308.888    886125.105  -6781187.316
10 0 59587  65022.000000  0    1779129.950    846805.739  -6607425.984
10 0 59587  65142.000000  0    2648178.777    777330.461  -6318383.663
10 0 59587  65262.000000  0    3469861.964    679587.279  -5919039.600
10 0 59587  65382.000000  0    4229418.238    556219.342  -5416285.185
10 0 59587  65502.000000  0    4913183.563    410564.405  -4818816.468
10 0 59587  65622.000000  0    5508842.075    246578.346  -4136995.370
10 0 59587  65742.000000  0    6005655.999     68742.787  -3382679.501
10 0 59587  65862.000000  0    6394669.494   -118040.886  -2569024.159
10 0 59587  65982.000000  0    6668883.511   -308569.304  -1710258.013
10 0 59587  66102.000000  0    6823394.521   -497463.901   -821434.118
10 0 59587  66222.000000  0    6855492.930   -679303.226     81836.957
10 0 59587  66342.000000  0    6764719.399   -848758.400    983667.089
10 0 59587  66462.000000  0    6552875.789  -1000727.935   1868178.230
10 0 59587  66582.000000  0    6223991.329  -1130468.276   2719791.457
10 0 59587  66702.000000  0    5784241.312  -1233716.309   3523510.367
10 0 59587  66822.000000  0    5241824.704  -1306800.915   4265190.784
10 0 59587  66942.000000  0    4606802.327  -1346741.855   4931793.640
10 0 59587  67062.000000  0    3890900.066  -1351331.375   5511614.505
10 0 59587  67182.000000  0    3107283.132  -1319197.903   5994487.269
10 0 59587  67302.000000  0    2270305.373  -1249851.459   6371957.631
10 0 59587  67422.000000  0    1395241.089  -1143709.372   6637425.343
10 0 59587  67542.000000  0     498002.033  -1002101.814   6786254.404
10 0 59587  67662.000000  0    -405153.970   -827256.334   6815848.139
10 0 59587  67782.000000  0   -1297916.908   -622262.896   6725690.373
10 0 59587  67902.000000  0   -2164217.525   -391019.429   6517353.606
10 0 59587  68022.000000  0   -2988515.029   -138158.434   6194473.624
10 0 59587  68142.000000  0   -3756076.352    131044.035   5762691.276
10 0 59587  68262.000000  0   -4453243.023    410775.492   5229560.198
10 0 59587  68382.000000  0   -5067680.008    694808.525   4604420.567
10 0 59587  68502.000000  0   -5588602.170    976634.587   3898240.636
10 0 59587  68622.000000  0   -6006972.184   1249607.563   3123427.147
10 0 59587  68742.000000  0   -6315666.704   1507093.935   2293608.843
10 0 59587  68862.000000  0   -6509606.835   1742625.709   1423395.017
10 0 59587  68982.000000  0   -6585849.582   1950053.026    528113.512
10 0 59587  69102.000000  0   -6543635.827   2123692.364   -376467.571
10 0 59587  69222.000000  0   -6384393.509   2258465.469  -1274426.583
10 0 59587  69342.000000  0   -6111697.064   2350026.406  -2149976.946
10 0 59587  69462.000000  0   -5731184.407   2394873.964  -2987752.835
10 0 59587  69582.000000  0   -5250431.683   2390445.587  -3773084.843
10 0 59587  69702.000000  0   -4678791.430   2335190.245  -4492258.176
10 0 59587  69822.000000  0   -4027199.391   2228619.681  -5132749.367
10 0 59587  69942.000000  0   -3307955.171   2071337.487  -5683437.164
10 0 59587  70062.000000  0   -2534483.537   1865045.845  -6134785.833
10 0 59587  70182.000000  0   -1721079.626   1612529.840  -6479000.410
10 0 59587  70302.000000  0    -882642.769   1317619.540  -6710149.013
10 0 59587  70422.000000  0     -34406.879    985131.284  -6824254.097
10 0 59587  70542.000000  0     808329.831    620789.902  -6819352.824
10 0 59587  70662.000000  0    1630474.012    231132.295  -6695529.486
10 0 59587  70782.000000  0    2417402.416   -176607.426  -6454913.722
10 0 59587  70902.000000  0    3155216.294   -594628.266  -6101648.001
10 0 59587  71022.000000  0    3830984.351  -1014707.149  -5641823.180
10 0 59587  71142.000000  0    4432968.306  -1428355.548  -5083383.813
10 0 59587  71262.000000  0    4950831.168  -1826987.524  -4436003.107
10 0 59587  71382.000000  0    5375821.701  -2202094.962  -3710926.001
10 0 59587  71502.000000  0    5700931.880  -2545426.305  -2920782.983
10 0 59587  71622.000000  0    5921023.425  -2849165.402  -2079375.713
10 0 59587  71742.000000  0    6032918.917  -3106106.046  -1201437.842
10 0 59587  71862.000000  0    6035455.666  -3309817.888   -302375.990
10 0 59587  71982.000000  0    5929499.893  -3454799.793    602005.399
10 0 59587  72102.000000  0    5717920.764  -3536616.499   1495788.786
10 0 59587  72222.000000  0    5405523.328  -3552014.337   2363234.076
10 0 59587  72342.000000  0    4998940.385  -3499011.873   3189064.273
10 0 59587  72462.000000  0    4506489.666  -3376964.577   3958741.537
10 0 59587  72582.000000  0    3937999.478  -3186601.253   4658727.361
10 0 59587  72702.000000  0    3304606.217  -2930033.380   5276723.949
10 0 59587  72822.000000  0    2618528.176  -2610734.467   5801889.134
10 0 59587  72942.000000  0    1892823.906  -2233491.792   6225022.771
10 0 59587  73062.000000  0    1141138.790  -1804332.482   6538722.421
10 0 59587  73182.000000  0     377445.404  -1330424.785   6737506.771
10 0 59587  73302.000000  0    -384217.308   -819956.228   6817905.456
10 0 59587  73422.000000  0   -1130001.464   -281991.187   6778515.092
10 0 59587  73542.000000  0   -1846500.740    273689.756   6620022.075
10 0 59587  73662.000000  0   -2520990.370    836767.079   6345191.507
10 0 59587  73782.000000  0   -3141653.221   1396572.959   5958822.284
10 0 59587  73902.000000  0   -3697788.564   1942292.402   5467668.998
10 0 59587  74022.000000  0   -4180000.975   2463172.289   4880330.745
10 0 59587  74142.000000  0   -4580365.191   2948735.012   4207106.411
10 0 59587  74262.000000  0   -4892563.036   3388990.636   3459817.492
10 0 59587  74382.000000  0   -5111989.009   3774644.452   2651602.749
10 0 59587  74502.000000  0   -5235822.970   4097295.500   1796687.140
10 0 59587  74622.000000  0   -5263068.006   4349620.925    910127.616
10 0 59587  74742.000000  0   -5194550.239   4525540.317      7540.566
10 0 59587  74862.000000  0   -5032881.777   4620355.506   -895180.851
10 0 59587  74982.000000  0   -4782388.097   4630864.368  -1782156.133
10 0 59587  75102.000000  0   -4448999.442   4555443.536  -2637806.420
10 0 59587  75222.000000  0   -4040110.821   4394097.219  -3447134.907
10 0 59587  75342.000000  0   -3564414.200   4148472.895  -4195992.661
10 0 59587  75462.000000  0   -3031708.593   3821844.177  -4871324.124
10 0 59587  75582.000000  0   -2452694.051   3419062.264  -5461388.358
10 0 59587  75702.000000  0   -1838754.652   2946478.819  -5955955.294
10 0 59587  75822.000000  0   -1201732.720   2411839.829  -6346473.745
10 0 59587  75942.000000  0    -553700.625   1824153.678  -6626207.392
10 0 59587  76062.000000  0      93264.994   1193537.914  -6790339.677
10 0 59587  76182.000000  0     727302.874    531046.068  -6836047.851
10 0 59587  76302.000000  0    1336979.806   -151522.345  -6762547.647
10 0 59587  76422.000000  0    1911492.508   -841828.020  -6571104.112
10 0 59587  76542.000000  0    2440854.082  -1527209.006  -6265011.671
10 0 59587  76662.000000  0    2916065.218  -2194907.099  -5849543.629
10 0 59587  76782.000000  0    3329266.820  -2832300.361  -5331871.992
10 0 59587  76902.000000  0    3673873.584  -3427141.703  -4720955.336
10 0 59587  77022.000000  0    3944682.297  -3967794.939  -4027392.623
10 0 59587  77142.000000  0    4137954.241  -4443463.970  -3263249.706
10 0 59587  77262.000000  0    4251471.697  -4844413.010  -2441857.936
10 0 59587  77382.000000  0    4284565.572  -5162172.089  -1577585.832
10 0 59587  77502.000000  0    4238110.887  -5389721.960   -685587.346
10 0 59587  77622.000000  0    4114491.455  -5521652.276    218467.757
10 0 59587  77742.000000  0    3917533.215  -5554289.695   1118675.648
10 0 59587  77862.000000  0    3652408.504  -5485791.951   1999187.174
10 0 59587  77982.000000  0    3325511.858  -5316203.532   2844496.415
10 0 59587  78102.000000  0    2944311.626  -5047474.265   3639720.794
10 0 59587  78222.000000  0    2517182.118  -4683438.916   4370869.034
10 0 59587  78342.000000  0    2053220.363  -4229759.022   5025090.659
10 0 59587  78462.000000  0    1562051.565  -3693828.498   5590902.175
10 0 59587  78582.000000  0    1053628.123  -3084645.555   6058386.890
10 0 59587  78702.000000  0     538026.204  -2412654.059   6419363.293
10 0 59587  78822.000000  0      25245.626  -1689559.240   6667521.172
10 0 59587  78942.000000  0    -474983.116   -928121.219   6798525.635
10 0 59587  79062.000000  0    -953382.206   -141928.136   6810089.242
99
